start=new Date('2022-09-29T00:00:00.000Z').valueOf();
sats=[{"PERIOD":"95.437","TLE_LINE2":"2 51724  53.2175 217.1595 0002032  42.9281 317.1869 15.08843208 33489","TLE_LINE1":"1 51724U 22016L   22271.54246851  .00002312  00000-0  16331-3 0  9994","BSTAR":"0.00016331000000","TIME_SYSTEM":"UTC","REF_FRAME":"TEME","LAUNCH_DATE":"2022-02-21","REV_AT_EPOCH":"3348","MEAN_MOTION":"15.08843208","CLASSIFICATION_TYPE":"U","SEMIMAJOR_AXIS":"6917.871","CENTER_NAME":"EARTH","ELEMENT_SET_NO":"999","OBJECT_NAME":"STARLINK-3529","COUNTRY_CODE":"US","APOAPSIS":"541.141","EPHEMERIS_TYPE":"0","MEAN_ELEMENT_THEORY":"SGP4","DECAY_DATE":null,"OBJECT_ID":"2022-016L","ARG_OF_PERICENTER":"42.9281","INCLINATION":"53.2175","SITE":"AFETR","OBJECT_TYPE":"PAYLOAD","NORAD_CAT_ID":"51724","EPOCH":"2022-09-28T13:01:09.279264","PERIAPSIS":"538.330","RCS_SIZE":"LARGE","GP_ID":"213710268","ECCENTRICITY":"0.00020320","MEAN_MOTION_DDOT":"0.0000000000000","MEAN_MOTION_DOT":"0.00002312","MEAN_ANOMALY":"317.1869","FILE":"3586039","RA_OF_ASC_NODE":"217.1595"},{"COUNTRY_CODE":"US","ELEMENT_SET_NO":"999","OBJECT_NAME":"STARLINK-3522","MEAN_ELEMENT_THEORY":"SGP4","APOAPSIS":"540.846","EPHEMERIS_TYPE":"0","BSTAR":"0.00011351000000","TIME_SYSTEM":"UTC","REF_FRAME":"TEME","LAUNCH_DATE":"2022-02-21","TLE_LINE2":"2 51725  53.2169 217.1109 0001579  54.7743 305.3397 15.08837454 33484","PERIOD":"95.438","TLE_LINE1":"1 51725U 22016M   22271.55351407  .00001519  00000-0  11351-3 0  9995","MEAN_MOTION":"15.08837454","CLASSIFICATION_TYPE":"U","SEMIMAJOR_AXIS":"6917.888","CENTER_NAME":"EARTH","REV_AT_EPOCH":"3348","NORAD_CAT_ID":"51725","EPOCH":"2022-09-28T13:17:03.615648","PERIAPSIS":"538.661","RCS_SIZE":"LARGE","GP_ID":"213711520","MEAN_MOTION_DOT":"0.00001519","MEAN_ANOMALY":"305.3397","RA_OF_ASC_NODE":"217.1109","FILE":"3586039","ECCENTRICITY":"0.00015790","MEAN_MOTION_DDOT":"0.0000000000000","ARG_OF_PERICENTER":"54.7743","INCLINATION":"53.2169","SITE":"AFETR","DECAY_DATE":null,"OBJECT_ID":"2022-016M","OBJECT_TYPE":"PAYLOAD"},{"REV_AT_EPOCH":"3367","CLASSIFICATION_TYPE":"U","MEAN_MOTION":"15.08838217","CENTER_NAME":"EARTH","SEMIMAJOR_AXIS":"6917.886","TLE_LINE2":"2 51726  53.2192 205.7898 0002225  51.7319 308.3874 15.08838217 33676","PERIOD":"95.438","TLE_LINE1":"1 51726U 22016N   22271.84882592 -.00001068  00000-0 -49002-4 0  9998","BSTAR":"-0.00004900200000","TIME_SYSTEM":"UTC","REF_FRAME":"TEME","LAUNCH_DATE":"2022-02-21","APOAPSIS":"541.290","EPHEMERIS_TYPE":"0","MEAN_ELEMENT_THEORY":"SGP4","ELEMENT_SET_NO":"999","OBJECT_NAME":"STARLINK-3527","COUNTRY_CODE":"US","OBJECT_TYPE":"PAYLOAD","DECAY_DATE":null,"OBJECT_ID":"2022-016N","ARG_OF_PERICENTER":"51.7319","INCLINATION":"53.2192","SITE":"AFETR","ECCENTRICITY":"0.00022250","MEAN_MOTION_DDOT":"0.0000000000000","MEAN_MOTION_DOT":"-0.00001068","MEAN_ANOMALY":"308.3874","RA_OF_ASC_NODE":"205.7898","FILE":"3586258","NORAD_CAT_ID":"51726","EPOCH":"2022-09-28T20:22:18.559488","PERIAPSIS":"538.212","RCS_SIZE":"LARGE","GP_ID":"213766903"},{"TLE_LINE1":"1 51727U 22016P   22271.87734666  .00003804  00000-0  25692-3 0  9996","TLE_LINE2":"2 51727  53.2158 215.6519 0001960  48.3045 311.8114 15.08851476 33535","PERIOD":"95.437","LAUNCH_DATE":"2022-02-21","REF_FRAME":"TEME","BSTAR":"0.00025692000000","TIME_SYSTEM":"UTC","REV_AT_EPOCH":"3353","CENTER_NAME":"EARTH","SEMIMAJOR_AXIS":"6917.845","CLASSIFICATION_TYPE":"U","MEAN_MOTION":"15.08851476","OBJECT_NAME":"STARLINK-3532","ELEMENT_SET_NO":"999","COUNTRY_CODE":"US","EPHEMERIS_TYPE":"0","APOAPSIS":"541.066","MEAN_ELEMENT_THEORY":"SGP4","OBJECT_ID":"2022-016P","DECAY_DATE":null,"SITE":"AFETR","INCLINATION":"53.2158","ARG_OF_PERICENTER":"48.3045","OBJECT_TYPE":"PAYLOAD","GP_ID":"213767628","PERIAPSIS":"538.354","RCS_SIZE":"LARGE","EPOCH":"2022-09-28T21:03:22.751424","NORAD_CAT_ID":"51727","MEAN_MOTION_DDOT":"0.0000000000000","ECCENTRICITY":"0.00019600","RA_OF_ASC_NODE":"215.6519","FILE":"3586258","MEAN_ANOMALY":"311.8114","MEAN_MOTION_DOT":"0.00003804"},{"TIME_SYSTEM":"UTC","BSTAR":"0.00006536400000","LAUNCH_DATE":"2022-02-21","REF_FRAME":"TEME","TLE_LINE1":"1 51728U 22016Q   22271.84147266  .00000752  00000-0  65364-4 0  9998","TLE_LINE2":"2 51728  53.2177 205.8158 0001769  48.0184 312.0959 15.08841375 33677","PERIOD":"95.437","CENTER_NAME":"EARTH","SEMIMAJOR_AXIS":"6917.876","CLASSIFICATION_TYPE":"U","MEAN_MOTION":"15.08841375","REV_AT_EPOCH":"3367","COUNTRY_CODE":"US","OBJECT_NAME":"STARLINK-3448","ELEMENT_SET_NO":"999","MEAN_ELEMENT_THEORY":"SGP4","APOAPSIS":"540.965","EPHEMERIS_TYPE":"0","INCLINATION":"53.2177","ARG_OF_PERICENTER":"48.0184","SITE":"AFETR","DECAY_DATE":null,"OBJECT_ID":"2022-016Q","OBJECT_TYPE":"PAYLOAD","EPOCH":"2022-09-28T20:11:43.237824","NORAD_CAT_ID":"51728","GP_ID":"213765905","RCS_SIZE":"LARGE","PERIAPSIS":"538.517","MEAN_ANOMALY":"312.0959","MEAN_MOTION_DOT":"0.00000752","FILE":"3586258","RA_OF_ASC_NODE":"205.8158","MEAN_MOTION_DDOT":"0.0000000000000","ECCENTRICITY":"0.00017690"},{"ECCENTRICITY":"0.00016060","MEAN_MOTION_DDOT":"0.0000000000000","MEAN_MOTION_DOT":"0.00001575","MEAN_ANOMALY":"299.6073","FILE":"3586039","RA_OF_ASC_NODE":"207.2532","NORAD_CAT_ID":"51729","EPOCH":"2022-09-28T12:30:41.463072","PERIAPSIS":"538.644","RCS_SIZE":"LARGE","GP_ID":"213711021","OBJECT_TYPE":"PAYLOAD","DECAY_DATE":null,"OBJECT_ID":"2022-016R","ARG_OF_PERICENTER":"60.5079","INCLINATION":"53.2187","SITE":"AFETR","APOAPSIS":"540.866","EPHEMERIS_TYPE":"0","MEAN_ELEMENT_THEORY":"SGP4","ELEMENT_SET_NO":"999","OBJECT_NAME":"STARLINK-3523","COUNTRY_CODE":"US","REV_AT_EPOCH":"3362","MEAN_MOTION":"15.08836925","CLASSIFICATION_TYPE":"U","CENTER_NAME":"EARTH","SEMIMAJOR_AXIS":"6917.890","PERIOD":"95.438","TLE_LINE2":"2 51729  53.2187 207.2532 0001606  60.5079 299.6073 15.08836925 33620","TLE_LINE1":"1 51729U 22016R   22271.52131323  .00001575  00000-0  11706-3 0  9995","TIME_SYSTEM":"UTC","BSTAR":"0.00011706000000","REF_FRAME":"TEME","LAUNCH_DATE":"2022-02-21"},{"CENTER_NAME":"EARTH","SEMIMAJOR_AXIS":"6917.877","CLASSIFICATION_TYPE":"U","MEAN_MOTION":"15.08840952","REV_AT_EPOCH":"3358","LAUNCH_DATE":"2022-02-21","REF_FRAME":"TEME","BSTAR":"0.00011771000000","TIME_SYSTEM":"UTC","TLE_LINE1":"1 51730U 22016S   22271.23794788  .00001586  00000-0  11771-3 0  9999","TLE_LINE2":"2 51730  53.2185 208.5388 0001735  44.7585 315.3547 15.08840952 33584","PERIOD":"95.437","MEAN_ELEMENT_THEORY":"SGP4","EPHEMERIS_TYPE":"0","APOAPSIS":"540.943","COUNTRY_CODE":"US","OBJECT_NAME":"STARLINK-3530","ELEMENT_SET_NO":"999","OBJECT_TYPE":"PAYLOAD","SITE":"AFETR","INCLINATION":"53.2185","ARG_OF_PERICENTER":"44.7585","OBJECT_ID":"2022-016S","DECAY_DATE":null,"RA_OF_ASC_NODE":"208.5388","FILE":"3586039","MEAN_ANOMALY":"315.3547","MEAN_MOTION_DOT":"0.00001586","MEAN_MOTION_DDOT":"0.0000000000000","ECCENTRICITY":"0.00017350","GP_ID":"213711758","PERIAPSIS":"538.542","RCS_SIZE":"LARGE","EPOCH":"2022-09-28T05:42:38.696832","NORAD_CAT_ID":"51730"},{"SITE":"AFETR","ARG_OF_PERICENTER":"75.1597","INCLINATION":"53.2191","OBJECT_ID":"2022-016T","DECAY_DATE":null,"OBJECT_TYPE":"PAYLOAD","RCS_SIZE":"LARGE","PERIAPSIS":"538.705","GP_ID":"213767128","NORAD_CAT_ID":"51731","EPOCH":"2022-09-28T20:16:59.281248","RA_OF_ASC_NODE":"205.8055","FILE":"3586258","MEAN_MOTION_DOT":"-0.00000698","MEAN_ANOMALY":"284.9549","ECCENTRICITY":"0.00013890","MEAN_MOTION_DDOT":"0.0000000000000","REF_FRAME":"TEME","LAUNCH_DATE":"2022-02-21","BSTAR":"-0.00002577400000","TIME_SYSTEM":"UTC","PERIOD":"95.436","TLE_LINE2":"2 51731  53.2191 205.8055 0001389  75.1597 284.9549 15.08865950 33677","TLE_LINE1":"1 51731U 22016T   22271.84513057 -.00000698  00000-0 -25774-4 0  9999","CLASSIFICATION_TYPE":"U","MEAN_MOTION":"15.08865950","SEMIMAJOR_AXIS":"6917.801","CENTER_NAME":"EARTH","REV_AT_EPOCH":"3367","COUNTRY_CODE":"US","ELEMENT_SET_NO":"999","OBJECT_NAME":"STARLINK-3514","MEAN_ELEMENT_THEORY":"SGP4","EPHEMERIS_TYPE":"0","APOAPSIS":"540.627"},{"MEAN_ELEMENT_THEORY":"SGP4","APOAPSIS":"540.686","EPHEMERIS_TYPE":"0","COUNTRY_CODE":"US","ELEMENT_SET_NO":"999","OBJECT_NAME":"STARLINK-3518","MEAN_MOTION":"15.08848305","CLASSIFICATION_TYPE":"U","CENTER_NAME":"EARTH","SEMIMAJOR_AXIS":"6917.855","REV_AT_EPOCH":"3481","BSTAR":"0.00012959000000","TIME_SYSTEM":"UTC","REF_FRAME":"TEME","LAUNCH_DATE":"2022-02-21","TLE_LINE2":"2 51732  53.2174 205.8825 0001397  67.4427 292.6713 15.08848305 34810","PERIOD":"95.437","TLE_LINE1":"1 51732U 22016U   22271.83042063  .00001776  00000-0  12959-3 0  9999","MEAN_MOTION_DOT":"0.00001776","MEAN_ANOMALY":"292.6713","FILE":"3586258","RA_OF_ASC_NODE":"205.8825","MEAN_MOTION_DDOT":"0.0000000000000","ECCENTRICITY":"0.00013970","NORAD_CAT_ID":"51732","EPOCH":"2022-09-28T19:55:48.342432","RCS_SIZE":"LARGE","PERIAPSIS":"538.754","GP_ID":"213766406","OBJECT_TYPE":"PAYLOAD","ARG_OF_PERICENTER":"67.4427","INCLINATION":"53.2174","SITE":"AFETR","DECAY_DATE":null,"OBJECT_ID":"2022-016U"},{"ARG_OF_PERICENTER":"48.4024","INCLINATION":"53.2182","SITE":"AFETR","DECAY_DATE":null,"OBJECT_ID":"2022-016V","OBJECT_TYPE":"PAYLOAD","NORAD_CAT_ID":"51733","EPOCH":"2022-09-28T07:23:19.809024","RCS_SIZE":"LARGE","PERIAPSIS":"538.275","GP_ID":"213743097","MEAN_MOTION_DOT":"0.00009546","MEAN_ANOMALY":"311.7142","RA_OF_ASC_NODE":"208.2130","FILE":"3586230","ECCENTRICITY":"0.00020290","MEAN_MOTION_DDOT":"0.0000000000000","TIME_SYSTEM":"UTC","BSTAR":"0.00061666000000","REF_FRAME":"TEME","LAUNCH_DATE":"2022-02-21","TLE_LINE2":"2 51733  53.2182 208.2130 0002029  48.4024 311.7142 15.08861984 34650","PERIOD":"95.436","TLE_LINE1":"1 51733U 22016V   22271.30786816  .00009546  00000-0  61666-3 0  9995","MEAN_MOTION":"15.08861984","CLASSIFICATION_TYPE":"U","CENTER_NAME":"EARTH","SEMIMAJOR_AXIS":"6917.813","REV_AT_EPOCH":"3465","COUNTRY_CODE":"US","ELEMENT_SET_NO":"999","OBJECT_NAME":"STARLINK-3525","MEAN_ELEMENT_THEORY":"SGP4","APOAPSIS":"541.082","EPHEMERIS_TYPE":"0"}];
